STARLINK-11313 [DTC]    
1 61255U 24175N   24288.84292517  .00011175  00000+0  55270-4 0  9997
2 61255  53.1633  55.1968 0001046  96.1507 263.9636 15.82705796  4127
STARLINK-32431          
1 61256U 24175P   24288.58335648 -.01369771  00000+0 -11592-1 0  9999
2 61256  53.1592  56.9461 0001170  54.0727  46.9922 15.71923126  4274
STARLINK-32432          
1 61257U 24175Q   24288.58335648 -.01371302  00000+0 -11606-1 0  9999
2 61257  53.1591  56.9507 0001217  68.9115  30.2371 15.71923832  4270
STARLINK-32382          
1 61258U 24175R   24288.58335648 -.01369958  00000+0 -11594-1 0  9990
2 61258  53.1593  56.9255 0001111  63.4721  47.1755 15.71923280  4022
STARLINK-32435          
1 61259U 24175S   24288.58335648 -.01368914  00000+0 -11584-1 0  9991
2 61259  53.1592  56.9424 0001186  52.9370  50.0446 15.71922639  4235
STARLINK-32474          
1 61260U 24175T   24288.58335648 -.01367959  00000+0 -11575-1 0  9991
2 61260  53.1591  56.9388 0001246  60.2713  44.6272 15.71921843  4237
STARLINK-32447          
1 61261U 24175U   24288.58335648 -.01369879  00000+0 -11593-1 0  9995
2 61261  53.1591  56.9301 0001182  67.1283  41.6031 15.71923070  4278
STARLINK-32446          
1 61262U 24175V   24288.58335648 -.01369620  00000+0 -11590-1 0  9997
2 61262  53.1591  56.9346 0001303  68.7659  38.0489 15.71922917  4273
2024-174F               
1 61263U 24174F   24288.82212712  .00184213  11288-4  11308-2 0  9993
2 61263  97.4313 294.9529 0163015 317.5418  41.3321 15.60912333  3046
2024-174G               
1 61443U 24174G   24288.82382836  .00485434  74820-4  22028-2 0  9999
2 61443  97.4258 295.0980 0132439 315.9202  43.1562 15.71743553  2860
CZ-2D R/B               
1 61445U 24177B   24288.51812776  .00267604  32492-4  93627-3 0  9991
2 61445  41.3909  51.9707 0018339  13.8715 346.2633 15.88181022  2719
CREW DRAGON 9           
1 61447U 24178A   24288.51761528  .00017802  00000+0  32061-3 0  9995
2 61447  51.6401  84.3419 0009014  69.8722  38.2029 15.49840441  1991
VULCAN CENTAUR R/B      
1 61448U 24179A   24278.48676111  .00000148  00000+0  00000+0 0  9994
2 61448  30.0000 357.3088 0004000 321.8000 177.5900 15.23529867    07
CYSAT-1                 
1 61501U 98067WZ  24288.55646696  .00111135  00000+0  17900-2 0  9994
2 61501  51.6364  84.0760 0008597  87.9483 272.2491 15.52051338   991
DORA                    
1 61502U 98067XA  24288.55521633  .00203378  00000+0  31425-2 0  9997
2 61502  51.6370  84.0676 0006040  72.8868 287.2783 15.52847623   985
HULIANWAN GAOGUI-03 (H*)
1 61503U 24181A   24284.71070559  .00000417 -72097-6  00000+0 0  9998
2 61503  28.4215 224.3262 7300910 179.4337  97.1562  2.28284594    08
SJ-19 DEB               
1 61505U 24177C   24288.68722399  .01896573  00000+0  62293-2 0  9990
2 61505  41.5982  51.9515 0014591  27.8452 332.3177 15.86826430   528
SJ-19 DEB               
1 61506U 24177D   24288.69724116  .00099533  00000+0  56973-3 0  9990
2 61506  41.6013  52.0351 0011301  47.6248 312.5554 15.77663843   496
NOAA 1                  
1 04793U 70106A   24288.11873567 -.00000021  00000+0  13877-3 0  9991
2 04793 101.4319 336.1237 0031945 104.4070 311.8876 12.54034135464092
NOAA 2 (ITOS-D)         
1 06235U 72082A   24288.52222385  .00000010  00000+0  35458-3 0  9996
2 06235 102.0231 288.8965 0003725 254.3714 225.5440 12.53188340378450
NOAA 3                  
1 06920U 73086A   24288.50359906 -.00000003  00000+0  32523-3 0  9993
2 06920 102.2856 285.5622 0006372 164.5088 316.7800 12.40373081306185
NOAA 4                  
1 07529U 74089A   24288.49924770  .00000001  00000+0  29647-3 0  9998
2 07529 101.9980 283.8964 0008705 282.3305 198.3514 12.53185941283021
NOAA 5                  
1 09057U 76077A   24288.50055501 -.00000004  00000+0  32121-3 0  9999
2 09057 102.2253 261.7802 0010114  18.3016  93.6395 12.37807223178916
TIROS N                 
1 11060U 78096A   24288.17168185  .00000662  00000+0  33726-3 0  9996
2 11060  98.5209 324.0650 0010004 206.2676 153.7995 14.18966519592080
NOAA 6                  
1 11416U 79057A   24288.09590977  .00001079  00000+0  39607-3 0  9995
2 11416  98.6240 309.1657 0008835 268.5891  91.4282 14.34777689363305
NOAA 7                  
1 12553U 81059A   24288.19550932  .00000321  00000+0  17988-3 0  9998
2 12553  98.8802 347.5555 0010943 210.2920 149.7623 14.17599413238177
NOAA 8                  
1 13923U 83022A   24288.49924071  .00000614  00000+0  25820-3 0  9993
2 13923  98.7368 288.7223 0013795 242.7823 117.1953 14.29401666163811
NOAA 9                  
1 15427U 84123A   24288.48175144  .00000559  00000+0  30271-3 0  9999
2 15427  99.1253 288.8904 0013657 280.0069 233.3849 14.16728130 56934
NOAA 10                 
1 16969U 86073A   24288.48437119  .00000634  00000+0  26895-3 0  9991
2 16969  98.6545 273.3763 0011936 349.1428 122.1633 14.28771929982188
NOAA 11                 
1 19531U 88089A   24288.45836683  .00000325  00000+0  18728-3 0  9997
2 19531  98.5352 245.8510 0009920 250.3642 109.6463 14.15619584861064
NOAA 12                 
1 21263U 91032A   24288.52817445  .00000472  00000+0  21379-3 0  9996
2 21263  98.5694 277.0204 0014085  17.8342 342.3330 14.26429697737894
NOAA 13                 
1 22739U 93050A   24288.58088525  .00000530  00000+0  30471-3 0  9990
2 22739  98.6219 241.6306 0010688  73.9352 286.2997 14.13337713607115
NOAA 14                 
1 23455U 94089A   24288.49971840  .00000277  00000+0  16590-3 0  9994
2 23455  98.4430 277.9489 0010342  44.5443 315.6561 14.14468585536860
NOAA 15                 
1 25338U 98030A   24288.81392341  .00000583  00000+0  25835-3 0  9997
2 25338  98.5610 313.4107 0009815 341.3042  18.7777 14.26750796374492
NOAA 16                 
1 26536U 00055A   24288.55989932  .00000369  00000+0  21731-3 0  9990
2 26536  98.5199 322.6402 0009358 251.7628 108.2527 14.13670439537446
NOAA 17                 
1 27453U 02032A   24288.58994643  .00000697  00000+0  31243-3 0  9997
2 27453  98.7771 239.1936 0011114 327.7189  32.3309 14.25753003159960
NOAA 18                 
1 28654U 05018A   24288.78300070  .00000621  00000+0  35409-3 0  9990
2 28654  98.8659   4.7140 0015205  85.4798 274.8111 14.13373178   150
NOAA 19                 
1 33591U 09005A   24288.82240142  .00000547  00000+0  31658-3 0  9993
2 33591  99.0335 345.8155 0013014 317.8111  42.2059 14.13157131808526
SUOMI NPP               
1 37849U 11061A   24288.79540644  .00000354  00000+0  18858-3 0  9997
2 37849  98.7303 225.0113 0000253 103.5443 256.5761 14.19531193671831
NOAA 20 (JPSS-1)        
1 43013U 17073A   24288.81258997  .00000326  00000+0  17528-3 0  9998
2 43013  98.7145 224.7592 0000797 162.8935 197.2268 14.19538162357870
NOAA 21 (JPSS-2)        
1 54234U 22150A   24288.56753255  .00000406  00000+0  21354-3 0  9997
2 54234  98.7600 225.0933 0001830 114.9894 245.1472 14.19538076 99919
ISS (ZARYA)             
1 25544U 98067A   24288.82069349  .00024522  00000+0  43794-3 0  9999
2 25544  51.6377  82.8404 0009136  68.7676 291.4288 15.49857439477104
CSS (TIANHE)            
1 48274U 21035A   24288.44384532  .00030510  00000+0  30747-3 0  9995
2 48274  41.4662  75.6471 0004080 204.1799 155.8850 15.64711554197754
ISS (NAUKA)             
1 49044U 21066A   24288.51761528  .00017802  00000+0  32061-3 0  9997
2 49044  51.6401  84.3419 0009014  69.8722  38.2029 15.49840441182675
FREGAT DEB              
1 49271U 11037PF  24288.51955933  .00015247  00000+0  38827-1 0  9996
2 49271  51.6299   3.8267 0901434  20.7141 342.7932 12.21485655149765
CSS (WENTIAN)           
1 53239U 22085A   24288.44384532  .00030510  00000+0  30747-3 0  9998
2 53239  41.4662  75.6471 0004080 204.1799 155.8850 15.64711554124391
CSS (MENGTIAN)          
1 54216U 22143A   24288.44384532  .00030510  00000+0  30747-3 0  9999
2 54216  41.4662  75.6471 0004080 204.1799 155.8850 15.64711554110752
TIANZHOU-7              
1 58811U 24013A   24288.44384532  .00030510  00000+0  30747-3 0  9992
2 58811  41.4662  75.6471 0004080 204.1799 155.8850 15.64711554474884
CREW DRAGON 8           
1 59097U 24042A   24288.51761528  .00017802  00000+0  32061-3 0  9993
2 59097  51.6401  84.3419 0009014  69.8722  38.2029 15.49840441 34333
1998-067WL              
1 59561U 98067WL  24288.49939054  .00141572  00000+0  88891-3 0  9999
2 59561  51.6255  70.8814 0004270 308.2305  51.8309 15.75787276 27969
SHENZHOU-18 (SZ-18)     
1 59591U 24078A   24288.44384532  .00030510  00000+0  30747-3 0  9999
2 59591  41.4662  75.6471 0004080 204.1799 155.8850 15.64711554 25938
SZ-17 MODULE            
1 59624U 23164C   24288.70253665  .00127870  00000+0  56176-3 0  9992
2 59624  41.4717  63.2628 0011702   8.7238 351.3811 15.83303358 26355
PROGRESS-MS 27          
1 59913U 24103A   24288.49829386  .00023031  00000+0  41211-3 0  9990
2 59913  51.6372  84.4372 0009034  69.2898 290.9058 15.49842144 21524
CYGNUS NG-21            
1 60378U 24139A   24288.51761528  .00017802  00000+0  32061-3 0  9994
2 60378  51.6401  84.3419 0009014  69.8722  38.2029 15.49840441 10599
PROGRESS-MS 28          
1 60450U 24145A   24288.51761528  .00017802  00000+0  32061-3 0  9992
2 60450  51.6401  84.3419 0009014  69.8722  38.2029 15.49840441  9059
BINAR-4                 
1 60952U 98067WS  24288.80539223  .00380730  00000+0  27192-2 0  9991
2 60952  51.6285  79.7328 0003597 316.7357  43.3359 15.72066129  7242
COSMOGIRLSAT            
1 60953U 98067WT  24288.82732827  .00168651  00000+0  17900-2 0  9991
2 60953  51.6325  80.6377 0003982  93.3287 266.8163 15.62993612  7230
SAKURA                  
1 60954U 98067WU  24288.80577164  .00191602  00000+0  18901-2 0  9995
2 60954  51.6319  80.4937 0002869  84.9481 275.1842 15.64774029  7237
